[{"OBJECT_NAME":"STARLINK-6083","OBJECT_ID":"2023-046S","EPOCH":"2025-10-14T05:41:34.822176","MEAN_MOTION":15.0253896,"ECCENTRICITY":0.00011894,"INCLINATION":43.0019,"RA_OF_ASC_NODE":234.5632,"ARG_OF_PERICENTER":256.3983,"MEAN_ANOMALY":103.6727,"EPHEMERIS_TYPE":0,"CLASSIFICATION_TYPE":"U","NORAD_CAT_ID":56109,"ELEMENT_SET_NO":999,"REV_AT_EPOCH":14003,"BSTAR":0.000377098,"MEAN_MOTION_DOT":4.894e-5,"MEAN_MOTION_DDOT":0},{"OBJECT_NAME":"STARLINK-6082","OBJECT_ID":"2023-046T","EPOCH":"2025-10-14T05:49:32.083680","MEAN_MOTION":15.02554273,"ECCENTRICITY":7.837e-5,"INCLINATION":43.0011,"RA_OF_ASC_NODE":234.6078,"ARG_OF_PERICENTER":268.9021,"MEAN_ANOMALY":91.1731,"EPHEMERIS_TYPE":0,"CLASSIFICATION_TYPE":"U","NORAD_CAT_ID":56110,"ELEMENT_SET_NO":999,"REV_AT_EPOCH":14003,"BSTAR":0.00019326706,"MEAN_MOTION_DOT":2.409e-5,"MEAN_MOTION_DDOT":0},{"OBJECT_NAME":"STARLINK-6084","OBJECT_ID":"2023-046U","EPOCH":"2025-10-14T06:56:32.241120","MEAN_MOTION":15.02530534,"ECCENTRICITY":0.00012418,"INCLINATION":43.0049,"RA_OF_ASC_NODE":234.093,"ARG_OF_PERICENTER":265.6377,"MEAN_ANOMALY":94.4324,"EPHEMERIS_TYPE":0,"CLASSIFICATION_TYPE":"U","NORAD_CAT_ID":56111,"ELEMENT_SET_NO":999,"REV_AT_EPOCH":14004,"BSTAR":2.9228423e-5,"MEAN_MOTION_DOT":1.91e-6,"MEAN_MOTION_DDOT":0},{"OBJECT_NAME":"STARLINK-6080","OBJECT_ID":"2023-046V","EPOCH":"2025-10-14T05:28:47.993664","MEAN_MOTION":15.02532004,"ECCENTRICITY":0.00012985,"INCLINATION":43.0015,"RA_OF_ASC_NODE":234.4958,"ARG_OF_PERICENTER":264.0832,"MEAN_ANOMALY":95.9863,"EPHEMERIS_TYPE":0,"CLASSIFICATION_TYPE":"U","NORAD_CAT_ID":56112,"ELEMENT_SET_NO":999,"REV_AT_EPOCH":14003,"BSTAR":-4.3371768e-5,"MEAN_MOTION_DOT":-7.89e-6,"MEAN_MOTION_DDOT":0},{"OBJECT_NAME":"STARLINK-6113","OBJECT_ID":"2023-046W","EPOCH":"2025-10-14T05:14:24.713376","MEAN_MOTION":15.02530466,"ECCENTRICITY":0.0001263,"INCLINATION":43.0031,"RA_OF_ASC_NODE":234.4255,"ARG_OF_PERICENTER":269.3894,"MEAN_ANOMALY":90.6803,"EPHEMERIS_TYPE":0,"CLASSIFICATION_TYPE":"U","NORAD_CAT_ID":56113,"ELEMENT_SET_NO":999,"REV_AT_EPOCH":14003,"BSTAR":-1.7708252e-5,"MEAN_MOTION_DOT":-4.43e-6,"MEAN_MOTION_DDOT":0},{"OBJECT_NAME":"STARLINK-6101","OBJECT_ID":"2023-046Y","EPOCH":"2025-10-14T05:08:01.072320","MEAN_MOTION":15.0253233,"ECCENTRICITY":0.00011636,"INCLINATION":43.0027,"RA_OF_ASC_NODE":234.3908,"ARG_OF_PERICENTER":263.3063,"MEAN_ANOMALY":96.7647,"EPHEMERIS_TYPE":0,"CLASSIFICATION_TYPE":"U","NORAD_CAT_ID":56115,"ELEMENT_SET_NO":999,"REV_AT_EPOCH":14003,"BSTAR":5.1208322e-5,"MEAN_MOTION_DOT":4.88e-6,"MEAN_MOTION_DDOT":0},{"OBJECT_NAME":"STARLINK-6114","OBJECT_ID":"2023-046Z","EPOCH":"2025-10-14T06:59:44.038752","MEAN_MOTION":15.02526851,"ECCENTRICITY":0.00012512,"INCLINATION":43.0052,"RA_OF_ASC_NODE":234.1133,"ARG_OF_PERICENTER":269.4816,"MEAN_ANOMALY":90.5883,"EPHEMERIS_TYPE":0,"CLASSIFICATION_TYPE":"U","NORAD_CAT_ID":56116,"ELEMENT_SET_NO":999,"REV_AT_EPOCH":14004,"BSTAR":6.287172e-6,"MEAN_MOTION_DOT":-1.19e-6,"MEAN_MOTION_DDOT":0},{"OBJECT_NAME":"STARLINK-6107","OBJECT_ID":"2023-046AA","EPOCH":"2025-10-14T04:50:59.027712","MEAN_MOTION":15.02530937,"ECCENTRICITY":9.936e-5,"INCLINATION":43.005,"RA_OF_ASC_NODE":222.1885,"ARG_OF_PERICENTER":256.4162,"MEAN_ANOMALY":103.6569,"EPHEMERIS_TYPE":0,"CLASSIFICATION_TYPE":"U","NORAD_CAT_ID":56117,"ELEMENT_SET_NO":999,"REV_AT_EPOCH":14017,"BSTAR":-2.5056849e-5,"MEAN_MOTION_DOT":-5.42e-6,"MEAN_MOTION_DDOT":0},{"OBJECT_NAME":"STARLINK-6105","OBJECT_ID":"2023-046AB","EPOCH":"2025-10-14T08:00:01.999872","MEAN_MOTION":15.84813131,"ECCENTRICITY":0.00076523,"INCLINATION":42.9953,"RA_OF_ASC_NODE":162.5731,"ARG_OF_PERICENTER":251.7597,"MEAN_ANOMALY":295.5433,"EPHEMERIS_TYPE":0,"CLASSIFICATION_TYPE":"U","NORAD_CAT_ID":56118,"ELEMENT_SET_NO":999,"REV_AT_EPOCH":607,"BSTAR":0.00069117366,"MEAN_MOTION_DOT":0.00169203,"MEAN_MOTION_DDOT":0},{"OBJECT_NAME":"STARLINK-6091","OBJECT_ID":"2023-046AC","EPOCH":"2025-10-13T21:06:42.992064","MEAN_MOTION":15.02545841,"ECCENTRICITY":9.618e-5,"INCLINATION":43,"RA_OF_ASC_NODE":224.0663,"ARG_OF_PERICENTER":286.7333,"MEAN_ANOMALY":73.3404,"EPHEMERIS_TYPE":0,"CLASSIFICATION_TYPE":"U","NORAD_CAT_ID":56119,"ELEMENT_SET_NO":999,"REV_AT_EPOCH":14012,"BSTAR":7.2135498e-5,"MEAN_MOTION_DOT":7.71e-6,"MEAN_MOTION_DDOT":0},{"OBJECT_NAME":"STARLINK-6079","OBJECT_ID":"2023-046AD","EPOCH":"2025-10-14T05:16:33.045024","MEAN_MOTION":15.02537947,"ECCENTRICITY":0.0001187,"INCLINATION":43.004,"RA_OF_ASC_NODE":222.3177,"ARG_OF_PERICENTER":272.4226,"MEAN_ANOMALY":87.6481,"EPHEMERIS_TYPE":0,"CLASSIFICATION_TYPE":"U","NORAD_CAT_ID":56120,"ELEMENT_SET_NO":999,"REV_AT_EPOCH":14017,"BSTAR":-6.904617e-6,"MEAN_MOTION_DOT":-2.97e-6,"MEAN_MOTION_DDOT":0},{"OBJECT_NAME":"STARLINK-6092","OBJECT_ID":"2023-046AE","EPOCH":"2025-10-14T05:10:09.765120","MEAN_MOTION":15.02528937,"ECCENTRICITY":0.00015538,"INCLINATION":43.0013,"RA_OF_ASC_NODE":222.2863,"ARG_OF_PERICENTER":258.4105,"MEAN_ANOMALY":101.6563,"EPHEMERIS_TYPE":0,"CLASSIFICATION_TYPE":"U","NORAD_CAT_ID":56121,"ELEMENT_SET_NO":999,"REV_AT_EPOCH":14017,"BSTAR":-3.0087991e-5,"MEAN_MOTION_DOT":-6.1e-6,"MEAN_MOTION_DDOT":0},{"OBJECT_NAME":"STARLINK-6094","OBJECT_ID":"2023-046AF","EPOCH":"2025-10-14T05:16:00.595776","MEAN_MOTION":15.02530757,"ECCENTRICITY":0.00012816,"INCLINATION":43.0055,"RA_OF_ASC_NODE":234.43,"ARG_OF_PERICENTER":270.2306,"MEAN_ANOMALY":89.839,"EPHEMERIS_TYPE":0,"CLASSIFICATION_TYPE":"U","NORAD_CAT_ID":56122,"ELEMENT_SET_NO":999,"REV_AT_EPOCH":14003,"BSTAR":-1.3959582e-5,"MEAN_MOTION_DOT":-3.92e-6,"MEAN_MOTION_DDOT":0},{"OBJECT_NAME":"STARLINK-6115","OBJECT_ID":"2023-046AH","EPOCH":"2025-10-14T04:52:34.748544","MEAN_MOTION":15.02535172,"ECCENTRICITY":0.00011996,"INCLINATION":43.0042,"RA_OF_ASC_NODE":222.1943,"ARG_OF_PERICENTER":267.3866,"MEAN_ANOMALY":92.6839,"EPHEMERIS_TYPE":0,"CLASSIFICATION_TYPE":"U","NORAD_CAT_ID":56123,"ELEMENT_SET_NO":999,"REV_AT_EPOCH":14017,"BSTAR":1.7906087e-5,"MEAN_MOTION_DOT":3.8e-7,"MEAN_MOTION_DDOT":0},{"OBJECT_NAME":"STARLINK-6126","OBJECT_ID":"2023-046AJ","EPOCH":"2025-10-14T05:11:45.758976","MEAN_MOTION":15.02525617,"ECCENTRICITY":8.164e-5,"INCLINATION":43.0046,"RA_OF_ASC_NODE":222.2937,"ARG_OF_PERICENTER":257.0798,"MEAN_ANOMALY":102.9953,"EPHEMERIS_TYPE":0,"CLASSIFICATION_TYPE":"U","NORAD_CAT_ID":56124,"ELEMENT_SET_NO":999,"REV_AT_EPOCH":14017,"BSTAR":8.549173e-5,"MEAN_MOTION_DOT":9.51e-6,"MEAN_MOTION_DDOT":0},{"OBJECT_NAME":"STARLINK-6119","OBJECT_ID":"2023-046AK","EPOCH":"2025-10-14T04:57:21.955104","MEAN_MOTION":15.02540023,"ECCENTRICITY":9.895e-5,"INCLINATION":43.002,"RA_OF_ASC_NODE":222.2163,"ARG_OF_PERICENTER":273.4027,"MEAN_ANOMALY":86.6702,"EPHEMERIS_TYPE":0,"CLASSIFICATION_TYPE":"U","NORAD_CAT_ID":56125,"ELEMENT_SET_NO":999,"REV_AT_EPOCH":14017,"BSTAR":5.852248e-5,"MEAN_MOTION_DOT":5.87e-6,"MEAN_MOTION_DDOT":0},{"OBJECT_NAME":"STARLINK-6124","OBJECT_ID":"2023-046AL","EPOCH":"2025-10-14T03:12:02.932128","MEAN_MOTION":15.02538786,"ECCENTRICITY":0.00010638,"INCLINATION":43.0032,"RA_OF_ASC_NODE":222.5257,"ARG_OF_PERICENTER":273.6976,"MEAN_ANOMALY":86.3744,"EPHEMERIS_TYPE":0,"CLASSIFICATION_TYPE":"U","NORAD_CAT_ID":56126,"ELEMENT_SET_NO":999,"REV_AT_EPOCH":14016,"BSTAR":7.3604892e-5,"MEAN_MOTION_DOT":7.91e-6,"MEAN_MOTION_DDOT":0},{"OBJECT_NAME":"STARLINK-6104","OBJECT_ID":"2023-046AM","EPOCH":"2025-10-14T04:36:35.218656","MEAN_MOTION":15.02537457,"ECCENTRICITY":0.00011105,"INCLINATION":43.0034,"RA_OF_ASC_NODE":222.1039,"ARG_OF_PERICENTER":274.2752,"MEAN_ANOMALY":85.7964,"EPHEMERIS_TYPE":0,"CLASSIFICATION_TYPE":"U","NORAD_CAT_ID":56127,"ELEMENT_SET_NO":999,"REV_AT_EPOCH":14017,"BSTAR":8.6057808e-5,"MEAN_MOTION_DOT":9.59e-6,"MEAN_MOTION_DDOT":0},{"OBJECT_NAME":"STARLINK-6122","OBJECT_ID":"2023-046AN","EPOCH":"2025-10-14T05:00:33.320736","MEAN_MOTION":15.02558001,"ECCENTRICITY":0.00011378,"INCLINATION":43.0016,"RA_OF_ASC_NODE":222.231,"ARG_OF_PERICENTER":275.4057,"MEAN_ANOMALY":84.6656,"EPHEMERIS_TYPE":0,"CLASSIFICATION_TYPE":"U","NORAD_CAT_ID":56128,"ELEMENT_SET_NO":999,"REV_AT_EPOCH":14017,"BSTAR":-0.00020810489,"MEAN_MOTION_DOT":-3.015e-5,"MEAN_MOTION_DDOT":0},{"OBJECT_NAME":"STARLINK-6121","OBJECT_ID":"2023-046AP","EPOCH":"2025-10-13T09:34:09.441696","MEAN_MOTION":15.0253621,"ECCENTRICITY":0.0001222,"INCLINATION":43.0037,"RA_OF_ASC_NODE":174.5824,"ARG_OF_PERICENTER":272.0421,"MEAN_ANOMALY":88.0281,"EPHEMERIS_TYPE":0,"CLASSIFICATION_TYPE":"U","NORAD_CAT_ID":56129,"ELEMENT_SET_NO":999,"REV_AT_EPOCH":14065,"BSTAR":6.3608933e-5,"MEAN_MOTION_DOT":6.56e-6,"MEAN_MOTION_DDOT":0},{"OBJECT_NAME":"STARLINK-6117","OBJECT_ID":"2023-046AQ","EPOCH":"2025-10-14T03:07:15.245184","MEAN_MOTION":15.02541791,"ECCENTRICITY":0.00011235,"INCLINATION":43.0035,"RA_OF_ASC_NODE":222.5054,"ARG_OF_PERICENTER":277.4822,"MEAN_ANOMALY":82.5893,"EPHEMERIS_TYPE":0,"CLASSIFICATION_TYPE":"U","NORAD_CAT_ID":56130,"ELEMENT_SET_NO":999,"REV_AT_EPOCH":14016,"BSTAR":8.30432e-7,"MEAN_MOTION_DOT":-1.92e-6,"MEAN_MOTION_DDOT":0},{"OBJECT_NAME":"STARLINK-6120","OBJECT_ID":"2023-046AR","EPOCH":"2025-10-14T04:22:12.493056","MEAN_MOTION":15.02536632,"ECCENTRICITY":9.909e-5,"INCLINATION":43.0036,"RA_OF_ASC_NODE":222.0278,"ARG_OF_PERICENTER":273.494,"MEAN_ANOMALY":86.5789,"EPHEMERIS_TYPE":0,"CLASSIFICATION_TYPE":"U","NORAD_CAT_ID":56131,"ELEMENT_SET_NO":999,"REV_AT_EPOCH":14017,"BSTAR":2.9847988e-5,"MEAN_MOTION_DOT":2.0e-6,"MEAN_MOTION_DDOT":0},{"OBJECT_NAME":"STARLINK-6071","OBJECT_ID":"2023-046AS","EPOCH":"2025-10-14T03:02:28.252032","MEAN_MOTION":15.02534442,"ECCENTRICITY":0.00012566,"INCLINATION":43.0047,"RA_OF_ASC_NODE":222.4789,"ARG_OF_PERICENTER":258.5085,"MEAN_ANOMALY":101.5616,"EPHEMERIS_TYPE":0,"CLASSIFICATION_TYPE":"U","NORAD_CAT_ID":56132,"ELEMENT_SET_NO":999,"REV_AT_EPOCH":14016,"BSTAR":-4.4326558e-5,"MEAN_MOTION_DOT":-8.02e-6,"MEAN_MOTION_DDOT":0}]
